NORAD_CAT_ID,OBJECT_NAME,OBJECT_TYPE,EPOCH,MEAN_MOTION,ECCENTRICITY,INCLINATION,RA_OF_ASC_NODE,ARG_OF_PERICENTER,MEAN_ANOMALY,BSTAR,MEAN_MOTION_DOT,MEAN_MOTION_DDOT,TLE_LINE0,TLE_LINE1,TLE_LINE2,SEMIMAJOR_AXIS,PERIOD,APOGEE,PERIGEE,DECAYED
49149.0,STARLINK-3053,PAYLOAD,2023-06-21 13:51:22,14.98340472,0.0003617,69.9998,275.9158,267.6902,92.3843,9.7514e-06,2.3e-07,0.0,0 STARLINK-3053,1 49149U 21082V   23172.57734655  .00000023  00000-0  97514-5 0  9993,2 49149  69.9998 275.9158 0003617 267.6902  92.3843 14.98340472 98564,6950.161,96.106,574.539,569.512,0.0
49149.0,STARLINK-3053,PAYLOAD,2023-06-21 17:03:38,14.9834138,0.0003604,69.9999,275.5791,267.6295,92.4451,2.2488e-05,1.75e-06,0.0,0 STARLINK-3053,1 49149U 21082V   23172.71086491  .00000175  00000-0  22488-4 0  9992,2 49149  69.9999 275.5791 0003604 267.6295  92.4451 14.98341380 98593,6950.158,96.106,574.528,569.518,0.0
49149.0,STARLINK-3053,PAYLOAD,2023-06-22 09:05:00,14.98326164,0.0003511,70.0002,273.8959,266.8429,93.2329,-2.9194e-05,-4.41e-06,0.0,0 STARLINK-3053,1 49149U 21082V   23173.37847523 -.00000441  00000-0 -29194-4 0  9995,2 49149  70.0002 273.8959 0003511 266.8429  93.2329 14.98326164 98692,6950.205,96.107,574.51,569.63,0.0
49149.0,STARLINK-3053,PAYLOAD,2023-06-22 23:30:12,14.98331105,0.0003715,69.9995,272.3806,269.465,90.6084,3.3407e-05,3.06e-06,0.0,0 STARLINK-3053,1 49149U 21082V   23173.97931055  .00000306  00000-0  33407-4 0  9995,2 49149  69.9995 272.3806 0003715 269.4650  90.6084 14.98331105 98786,6950.189,96.107,574.636,569.472,0.0
49149.0,STARLINK-3053,PAYLOAD,2023-06-23 15:31:32,14.98340535,0.0003663,69.9994,270.6976,268.7126,91.3613,9.2748e-05,1.014e-05,0.0,0 STARLINK-3053,1 49149U 21082V   23174.64690227  .00001014  00000-0  92748-4 0  9993,2 49149  69.9994 270.6976 0003663 268.7126  91.3613 14.98340535 98880,6950.16,96.106,574.571,569.479,0.0
49149.0,STARLINK-3053,PAYLOAD,2023-06-23 23:32:13,14.98330242,0.000399,70.0007,269.8573,266.7972,93.2731,1.4512e-05,8e-07,0.0,0 STARLINK-3053,1 49149U 21082V   23174.98070773  .00000080  00000-0  14512-4 0  9993,2 49149  70.0007 269.8573 0003990 266.7972  93.2731 14.98330242 98933,6950.192,96.107,574.83,569.284,0.0
49149.0,STARLINK-3053,PAYLOAD,2023-06-24 23:34:14,14.98322721,0.0003442,70.0001,267.3327,259.0842,100.993,7.9534e-05,8.56e-06,0.0,0 STARLINK-3053,1 49149U 21082V   23175.98211508  .00000856  00000-0  79534-4 0  9993,2 49149  70.0001 267.3327 0003442 259.0842 100.9930 14.98322721 99087,6950.215,96.107,574.473,569.688,0.0
49149.0,STARLINK-3053,PAYLOAD,2023-06-25 09:11:02,14.98331379,0.0003649,69.9999,266.3221,270.7139,89.3602,5.4089e-05,5.52e-06,0.0,0 STARLINK-3053,1 49149U 21082V   23176.38267019  .00000552  00000-0  54089-4 0  9997,2 49149  69.9999 266.3221 0003649 270.7139  89.3602 14.98331379 99142,6950.189,96.107,574.59,569.518,0.0
49149.0,STARLINK-3053,PAYLOAD,2023-06-26 09:13:04,14.98323986,0.000351,69.9995,263.7959,270.9642,89.1115,7.3103e-05,7.79e-06,0.0,0 STARLINK-3053,1 49149U 21082V   23177.38407445  .00000779  00000-0  73103-4 0  9996,2 49149  69.9995 263.7959 0003510 270.9642  89.1115 14.98323986 99293,6950.211,96.107,574.516,569.637,0.0
49149.0,STARLINK-3053,PAYLOAD,2023-06-27 10:51:12,14.98332568,0.0003608,69.9995,261.1031,270.5452,89.5293,8.8666e-05,9.65e-06,0.0,0 STARLINK-3053,1 49149U 21082V   23178.45222870  .00000965  00000-0  88666-4 0  9999,2 49149  69.9995 261.1031 0003608 270.5452  89.5293 14.98332568 99454,6950.185,96.107,574.558,569.542,0.0
49149.0,STARLINK-3053,PAYLOAD,2023-06-28 10:53:13,14.98328426,0.0003664,69.9995,258.5786,271.5834,88.4906,7.8765e-05,8.47e-06,0.0,0 STARLINK-3053,1 49149U 21082V   23179.45363021  .00000847  00000-0  78765-4 0  9992,2 49149  69.9995 258.5786 0003664 271.5834  88.4906 14.98328426 99602,6950.198,96.107,574.609,569.516,0.0
49149.0,STARLINK-3053,PAYLOAD,2023-06-29 10:55:14,14.98333886,0.0003613,69.9995,256.0539,271.7403,88.3342,1.4872e-05,8.4e-07,0.0,0 STARLINK-3053,1 49149U 21082V   23180.45502714  .00000084  00000-0  14872-4 0  9990,2 49149  69.9995 256.0539 0003613 271.7403  88.3342 14.98333886 99754,6950.181,96.107,574.557,569.535,0.0
49149.0,STARLINK-3053,PAYLOAD,2023-06-30 12:33:23,14.9832692,0.0003425,69.9999,253.3617,270.3681,89.7086,1.0294e-06,-8.1e-07,0.0,0 STARLINK-3053,1 49149U 21082V   23181.52318978 -.00000081  00000-0  10294-5 0  9999,2 49149  69.9999 253.3617 0003425 270.3681  89.7086 14.98326920 99918,6950.202,96.107,574.448,569.687,0.0
49149.0,STARLINK-3053,PAYLOAD,2023-07-01 14:11:33,14.98323779,0.0003485,69.9996,250.6682,268.9979,91.0781,-5.5523e-05,-7.55e-06,0.0,0 STARLINK-3053,1 49149U 21082V   23182.59135476 -.00000755  00000-0 -55523-4 0  9999,2 49149  69.9996 250.6682 0003485 268.9979  91.0781 14.98323779100073,6950.212,96.107,574.499,569.655,0.0
49149.0,STARLINK-3053,PAYLOAD,2023-07-02 11:01:17,14.98331362,0.0003693,69.9987,248.4788,268.2462,91.8274,9.4831e-05,1.039e-05,0.0,0 STARLINK-3053,1 49149U 21082V   23183.45922611  .00001039  00000-0  94831-4 0  9999,2 49149  69.9987 248.4788 0003693 268.2462  91.8274 14.98331362100203,6950.189,96.107,574.62,569.487,0.0
49149.0,STARLINK-3053,PAYLOAD,2023-07-03 11:03:17,14.98335646,0.0003745,69.9988,245.954,268.3159,91.7571,0.00013072,1.467e-05,0.0,0 STARLINK-3053,1 49149U 21082V   23184.46062126  .00001467  00000-0  13072-3 0  9999,2 49149  69.9988 245.9540 0003745 268.3159  91.7571 14.98335646100358,6950.175,96.107,574.643,569.438,0.0
49149.0,STARLINK-3053,PAYLOAD,2023-07-04 11:05:19,14.98331282,0.0003624,69.9991,243.4291,268.2783,91.7961,-2.3662e-05,-3.75e-06,0.0,0 STARLINK-3053,1 49149U 21082V   23185.46202617 -.00000375  00000-0 -23662-4 0  9997,2 49149  69.9991 243.4291 0003624 268.2783  91.7961 14.98331282100508,6950.189,96.107,574.573,569.535,0.0
49149.0,STARLINK-3053,PAYLOAD,2023-07-05 12:43:28,14.98331415,0.0003621,69.9991,240.7356,270.0214,90.053,-5.5884e-05,-7.6e-06,0.0,0 STARLINK-3053,1 49149U 21082V   23186.53018536 -.00000760  00000-0 -55884-4 0  9990,2 49149  69.9991 240.7356 0003621 270.0214  90.0530 14.98331415100666,6950.189,96.107,574.57,569.537,0.0
49149.0,STARLINK-3053,PAYLOAD,2023-07-06 12:45:28,14.98328783,0.0003735,69.9987,238.2109,269.9853,90.0878,3.3381e-05,3.05e-06,0.0,0 STARLINK-3053,1 49149U 21082V   23187.53158514  .00000305  00000-0  33381-4 0  9993,2 49149  69.9987 238.2109 0003735 269.9853  90.0878 14.98328783100817,6950.197,96.107,574.658,569.466,0.0
49149.0,STARLINK-3053,PAYLOAD,2023-07-07 12:47:29,14.98333092,0.0003781,69.9986,235.6865,269.6342,90.4384,7.6432e-05,8.19e-06,0.0,0 STARLINK-3053,1 49149U 21082V   23188.53298139  .00000819  00000-0  76432-4 0  9996,2 49149  69.9986 235.6865 0003781 269.6342  90.4384 14.98333092100968,6950.183,96.107,574.676,569.42,0.0
49149.0,STARLINK-3053,PAYLOAD,2023-07-08 12:49:30,14.98331946,0.0003819,69.9984,233.1609,269.9176,90.1545,4.3157e-05,4.22e-06,0.0,0 STARLINK-3053,1 49149U 21082V   23189.53438191  .00000422  00000-0  43157-4 0  9999,2 49149  69.9984 233.1609 0003819 269.9176  90.1545 14.98331946101115,6950.187,96.107,574.706,569.398,0.0
49149.0,STARLINK-3053,PAYLOAD,2023-07-09 12:51:31,14.98329681,0.0003823,69.9985,230.6362,270.164,89.9081,-2.6137e-05,-4.05e-06,0.0,0 STARLINK-3053,1 49149U 21082V   23190.53578485 -.00000405  00000-0 -26137-4 0  9994,2 49149  69.9985 230.6362 0003823 270.1640  89.9081 14.98329681101269,6950.194,96.107,574.716,569.402,0.0
49149.0,STARLINK-3053,PAYLOAD,2023-07-10 19:18:04,14.98330721,0.0003829,69.9985,227.4382,270.0418,90.0302,3.1007e-05,2.77e-06,0.0,0 STARLINK-3053,1 49149U 21082V   23191.80422115  .00000277  00000-0  31007-4 0  9990,2 49149  69.9985 227.4382 0003829 270.0418  90.0302 14.98330721101450,6950.191,96.107,574.717,569.394,0.0
49149.0,STARLINK-3053,PAYLOAD,2023-07-11 19:20:05,14.98330219,0.0003856,69.9984,224.9133,269.1366,90.9352,3.3044e-05,3.01e-06,0.0,0 STARLINK-3053,1 49149U 21082V   23192.80562134  .00000301  00000-0  33044-4 0  9998,2 49149  69.9984 224.9133 0003856 269.1366  90.9352 14.98330219101609,6950.192,96.107,574.737,569.377,0.0
49149.0,STARLINK-3053,PAYLOAD,2023-07-13 11:23:27,14.9832886,0.0003827,69.9984,220.7049,267.9237,92.1484,1.3773e-05,7.1e-07,0.0,0 STARLINK-3053,1 49149U 21082V   23194.47462236  .00000071  00000-0  13773-4 0  9996,2 49149  69.9984 220.7049 0003827 267.9237  92.1484 14.98328860101856,6950.196,96.107,574.721,569.402,0.0
49149.0,STARLINK-3053,PAYLOAD,2023-07-13 19:24:08,14.98321516,0.0003782,69.9992,219.8633,267.8336,92.239,-5.8906e-05,-7.96e-06,0.0,0 STARLINK-3053,1 49149U 21082V   23194.80842971 -.00000796  00000-0 -58906-4 0  9994,2 49149  69.9992 219.8633 0003782 267.8336  92.2390 14.98321516101906,6950.219,96.108,574.713,569.456,0.0
49149.0,STARLINK-3053,PAYLOAD,2023-07-14 09:49:21,14.98314236,0.0003833,69.999,218.3485,267.5272,92.5448,-0.00011312,-1.442e-05,0.0,0 STARLINK-3053,1 49149U 21082V   23195.40928017 -.00001442  00000-0 -11312-3 0  9995,2 49149  69.9990 218.3485 0003833 267.5272  92.5448 14.98314236101993,6950.242,96.108,574.771,569.443,0.0
49149.0,STARLINK-3053,PAYLOAD,2023-07-15 00:14:33,14.98330227,0.000363,69.9977,216.833,261.0366,99.0383,-4.3413e-06,-1.45e-06,0.0,0 STARLINK-3053,1 49149U 21082V   23196.01011115 -.00000145  00000-0 -43413-5 0  9993,2 49149  69.9977 216.8330 0003630 261.0366  99.0383 14.98330227102087,6950.192,96.107,574.58,569.534,0.0
49149.0,STARLINK-3053,PAYLOAD,2023-07-16 01:52:42,14.98325785,0.0004068,69.9977,214.1399,265.5267,94.5427,0.00021589,2.484e-05,0.0,0 STARLINK-3053,1 49149U 21082V   23197.07826998  .00002484  00000-0  21589-3 0  9997,2 49149  69.9977 214.1399 0004068 265.5267  94.5427 14.98325785102248,6950.206,96.107,574.898,569.244,0.0
49149.0,STARLINK-3053,PAYLOAD,2023-07-17 00:18:34,14.98339783,0.0004059,69.9981,211.7834,265.0331,95.0364,0.00011478,1.277e-05,0.0,0 STARLINK-3053,1 49149U 21082V   23198.01290376  .00001277  00000-0  11478-3 0  9992,2 49149  69.9981 211.7834 0004059 265.0331  95.0364 14.98339783102381,6950.163,96.106,574.849,569.207,0.0
